*******************************************************************************
JPL/HORIZONS                769 Tatjana (A913 TD)          2020-Jun-22 09:27:59
Rec #:     769 (+COV) Soln.date: 2020-May-20_01:12:41   # obs: 2924 (1914-2020)
 
IAU76/J2000 helio. ecliptic osc. elements (au, days, deg., period=Julian yrs):
 
  EPOCH=  2456009.5 ! 2012-Mar-23.00 (TDB)         Residual RMS= .31528
   EC= .1850631796609289   QR= 2.582036623090915   TP= 2455022.0783797265
   OM= 38.49895762851182   W=  254.2944860681576   IN= 7.369835286068458
   A= 3.16838871265702     MA= 172.5635314571321   ADIST= 3.754740802223126
   PER= 5.63983            N= .174761746           ANGMOM= .030090776
   DAN= 3.22125            DDN= 2.9139             L= 292.6691587
   B= -7.0932456           MOID= 1.57710004        TP= 2009-Jul-09.5783797265
 
Asteroid physical parameters (km, seconds, rotational period in hours):
   GM= n.a.                RAD= 48.36              ROTPER= 35.08
   H= 9.                   G= .150                 B-V= n.a.
                           ALBEDO= .052            STYP= n.a.
 
ASTEROID comments: 
1: soln ref.= JPL#39, OCC=0
2: source=ORB
*******************************************************************************
 
 
*******************************************************************************
Ephemeris / WWW_USER Mon Jun 22 09:27:59 2020 Pasadena, USA      / Horizons
*******************************************************************************
Target body name: 769 Tatjana (A913 TD)           {source: JPL#39}
Center body name: Solar System Barycenter (0)     {source: DE431}
Center-site name: BODY CENTER
*******************************************************************************
Start time      : A.D. 1969-Jun-28 00:00:00.0000 TDB
Stop  time      : A.D. 2071-May-04 00:00:00.0000 TDB
Step-size       : 7200 minutes
*******************************************************************************
Center geodetic : 0.00000000,0.00000000,0.0000000 {E-lon(deg),Lat(deg),Alt(km)}
Center cylindric: 0.00000000,0.00000000,0.0000000 {E-lon(deg),Dxy(km),Dz(km)}
Center radii    : (undefined)                                                  
Small perturbers: Yes                             {source: SB431-N16}
Output units    : AU-D
Output type     : GEOMETRIC cartesian states
Output format   : 2 (position and velocity)
Reference frame : Ecliptic of J2000.0
*******************************************************************************
Initial IAU76/J2000 heliocentric ecliptic osculating elements (au, days, deg.):
  EPOCH=  2456009.5 ! 2012-Mar-23.00 (TDB)         Residual RMS= .31528        
   EC= .1850631796609289   QR= 2.582036623090915   TP= 2455022.0783797265      
   OM= 38.49895762851182   W=  254.2944860681576   IN= 7.369835286068458       
  Equivalent ICRF heliocentric equatorial cartesian coordinates (au, au/d):
   X=-1.115391275345792E+00  Y= 3.081244382447107E+00  Z= 1.825795069444217E+00
  VX=-7.681060006018935E-03 VY=-2.251093349637026E-03 VZ=-5.540870656589719E-04
Asteroid physical parameters (km, seconds, rotational period in hours):        
   GM= n.a.                RAD= 48.36              ROTPER= 35.08               
   H= 9.                   G= .150                 B-V= n.a.                   
                           ALBEDO= .052            STYP= n.a.                  
*******************************************************************************
            JDTDB,            Calendar Date (TDB),        delta-T,                      X,                      Y,                      Z,                     VX,                     VY,                     VZ,
******************************************************************************************************************************************************************************************************************
$$SOE
2473580.500000000, A.D. 2060-May-01 00:00:00.0000,      69.185469,  1.054361261964106E+00, -2.373995201329361E+00, -3.238594471807167E-01,  1.060637477354178E-02,  4.583708539695883E-03, -3.783476123138203E-04,
2473585.500000000, A.D. 2060-May-06 00:00:00.0000,      69.185404,  1.107170098621108E+00, -2.350586999312744E+00, -3.256837875109149E-01,  1.051644682025845E-02,  4.779210959333571E-03, -3.513684216108195E-04,
2473590.500000000, A.D. 2060-May-11 00:00:00.0000,      69.185327,  1.159518656470577E+00, -2.326206803784153E+00, -3.273729449874545E-01,  1.042227479273633E-02,  4.972486246792400E-03, -3.242773868890572E-04,
2473595.500000000, A.D. 2060-May-16 00:00:00.0000,      69.185239,  1.211385891821657E+00, -2.300866043403502E+00, -3.289264041628865E-01,  1.032393006734744E-02,  5.163417702193937E-03, -2.970920225511690E-04,
2473600.500000000, A.D. 2060-May-21 00:00:00.0000,      69.185143,  1.262751128296143E+00, -2.274576722675397E+00, -3.303437372153016E-01,  1.022148816589003E-02,  5.351891718937994E-03, -2.698298590910427E-04,
2473605.500000000, A.D. 2060-May-26 00:00:00.0000,      69.185040,  1.313594077144020E+00, -2.247351406020790E+00, -3.316246039492655E-01,  1.011502858932588E-02,  5.537797966659707E-03, -2.425084113431068E-04,
2473610.500000000, A.D. 2060-May-31 00:00:00.0000,      69.184931,  1.363894856703805E+00, -2.219203200961708E+00, -3.327687516389648E-01,  1.000463464206901E-02,  5.721029562949670E-03, -2.151451471372547E-04,
2473615.500000000, A.D. 2060-Jun-05 00:00:00.0000,      69.184815,  1.413634010962213E+00, -2.190145740476527E+00, -3.337760147158736E-01,  9.890393247565871E-03,  5.901483233340957E-03, -1.877574564683779E-04,
2473620.500000000, A.D. 2060-Jun-10 00:00:00.0000,      69.184692,  1.462792527171659E+00, -2.160193164585599E+00, -3.346463143037794E-01,  9.772394755983233E-03,  6.079059459100463E-03, -1.603626212906423E-04,
2473625.500000000, A.D. 2060-Jun-15 00:00:00.0000,      69.184562,  1.511351852488189E+00, -2.129360101229327E+00, -3.353796576045613E-01,  9.650732744832424E-03,  6.253662612399995E-03, -1.329777860385092E-04,
2473630.500000000, A.D. 2060-Jun-20 00:00:00.0000,      69.184430,  1.559293909596559E+00, -2.097661646502634E+00, -3.359761371385656E-01,  9.525503813332364E-03,  6.425201078537891E-03, -1.056199289570522E-04,
2473635.500000000, A.D. 2060-Jun-25 00:00:00.0000,      69.184295,  1.606601111293090E+00, -2.065113344311130E+00, -3.364359298437850E-01,  9.396807371286059E-03,  6.593587365023525E-03, -7.830583430096894E-05,
2473640.500000000, A.D. 2060-Jun-30 00:00:00.0000,      69.184160,  1.653256374000809E+00, -2.031731165514755E+00, -3.367592960382921E-01,  9.264745423254724E-03,  6.758738197516111E-03, -5.105206544358943E-05,
2473645.500000000, A.D. 2060-Jul-05 00:00:00.0000,      69.184024,  1.699243130195508E+00, -1.997531486624289E+00, -3.369465782505793E-01,  9.129422348908190E-03,  6.920574602776295E-03, -2.387493893927799E-05,
2473650.500000000, A.D. 2060-Jul-10 00:00:00.0000,      69.183885,  1.744545339726170E+00, -1.962531068115080E+00, -3.369981999227389E-01,  8.990944680624441E-03,  7.079021978862973E-03,  3.209500387273162E-06,
2473655.500000000, A.D. 2060-Jul-15 00:00:00.0000,      69.183747,  1.789147500019217E+00, -1.926747032421382E+00, -3.369146639919057E-01,  8.849420879647012E-03,  7.234010152687446E-03,  3.018550319744355E-05,
2473660.500000000, A.D. 2060-Jul-20 00:00:00.0000,      69.183611,  1.833034655162839E+00, -1.890196841674866E+00, -3.366965513561622E-01,  8.704961112186731E-03,  7.385473424738093E-03,  5.703763807060635E-05,
2473665.500000000, A.D. 2060-Jul-25 00:00:00.0000,      69.183479,  1.876192403874181E+00, -1.852898275252403E+00, -3.363445192319238E-01,  8.557677026614474E-03,  7.533350600568917E-03,  8.375081245763679E-05,
2473670.500000000, A.D. 2060-Jul-30 00:00:00.0000,      69.183352,  1.918606906356781E+00, -1.814869407200167E+00, -3.358592994104299E-01,  8.407681532454744E-03,  7.677585008779872E-03,  1.103102920824185E-04,
2473675.500000000, A.D. 2060-Aug-04 00:00:00.0000,      69.183228,  1.960264890058237E+00, -1.776128583601254E+00, -3.352416964210655E-01,  8.255088581515658E-03,  7.818124505712004E-03,  1.367017188194282E-04,
2473680.500000000, A.D. 2060-Aug-09 00:00:00.0000,      69.183109,  2.001153654339357E+00, -1.736694399951443E+00, -3.344925856089202E-01,  8.100012951426294E-03,  7.954921467671723E-03,  1.629111271400195E-04,
2473685.500000000, A.D. 2060-Aug-14 00:00:00.0000,      69.182995,  2.041261074068356E+00, -1.696585678602996E+00, -3.336129111335540E-01,  7.942570032271681E-03,  8.087932771607857E-03,  1.889249591770691E-04,
2473690.500000000, A.D. 2060-Aug-19 00:00:00.0000,      69.182889,  2.080575602158147E+00, -1.655821446332857E+00, -3.326036838959836E-01,  7.782875617373198E-03,  8.217119764725852E-03,  2.147300783686546E-04,
2473695.500000000, A.D. 2060-Aug-24 00:00:00.0000,      69.182793,  2.119086271069802E+00, -1.614420912089862E+00, -3.314659794011074E-01,  7.621045699094275E-03,  8.342448223327564E-03,  2.403137816272338E-04,
2473700.500000000, A.D. 2060-Aug-29 00:00:00.0000,      69.182706,  2.156782693308904E+00, -1.572403444973773E+00, -3.302009355630275E-01,  7.457196270280277E-03,  8.463888301330271E-03,  2.656638100124081E-04,
2473705.500000000, A.D. 2060-Sep-03 00:00:00.0000,      69.182628,  2.193655060944290E+00, -1.529788552496339E+00, -3.288097504607614E-01,  7.291443131861071E-03,  8.581414469031573E-03,  2.907683579030134E-04,
2473710.500000000, A.D. 2060-Sep-08 00:00:00.0000,      69.182558,  2.229694144181260E+00, -1.486595859171745E+00, -3.272936800518301E-01,  7.123901707117212E-03,  8.695005442689427E-03,  3.156160806728513E-04,
2473715.500000000, A.D. 2060-Sep-13 00:00:00.0000,      69.182497,  2.264891289023726E+00, -1.442845085480932E+00, -3.256540358511862E-01,  6.954686863053870E-03,  8.804644105478985E-03,  3.401961008877091E-04,
